25417,ORBCOMM FM16,1998,100.33,-1.0,-,44.99,Inactive,0,LEO,Eastern Range Airspace,ORBCOMM,Unknown,Unknown,Pegasus,1 25417U 98046E   23287.57999258  .00002781  00000+0  10124-2 0  9999,2 25417  44.9939 188.0492 0003425  84.4436 275.6801 14.35200312316284,14.35200312,0.0003425,LEO
25418,ORBCOMM FM15,1998,100.35,45.0,-,45.0,Inactive,1,LEO,Eastern Range Airspace,ORBCOMM,Commercial,Communications,Pegasus,1 25418U 98046F   23287.42962694  .00002843  00000+0  10388-2 0  9999,2 25418  44.9970 192.3548 0002804  82.7258 277.3908 14.34957951316276,14.34957951,0.0002804,LEO
25419,ORBCOMM FM14,1998,100.34,45.0,-,45.0,Inactive,1,LEO,Eastern Range Airspace,ORBCOMM,Commercial,Communications,Pegasus,1 25419U 98046G   23287.75805964  .00002835  00000+0  10339-2 0  9999,2 25419  44.9962 190.1508 0002224  58.3891 330.7834 14.35069397316505,14.35069397,0.0002224,LEO
25475,ORBCOMM FM21,1998,100.38,45.0,-,45.01,Inactive,1,LEO,Eastern Range Airspace,ORBCOMM,Commercial,Communications,Pegasus,1 25475U 98053A   23287.65485551  .00002562  00000+0  94894-3 0  9990,2 25475  45.0082 278.5893 0002008 298.1802  61.8842 14.34546371309689,14.34546371,0.0002008,LEO
25476,ORBCOMM FM22,1998,100.35,-1.0,-,45.01,Inactive,0,LEO,Eastern Range Airspace,ORBCOMM,Unknown,Unknown,Pegasus,1 25476U 98053B   23287.34863844  .00002863  00000+0  10468-2 0  9990,2 25476  45.0076 278.0345 0002605 339.7423  20.3320 14.34910072309295,14.34910072,0.0002605,LEO
25477,ORBCOMM FM23,1998,100.38,45.0,-,45.01,Inactive,1,LEO,Eastern Range Airspace,ORBCOMM,Commercial,Communications,Pegasus,1 25477U 98053C   23287.26668968  .00002757  00000+0  10177-2 0  9991,2 25477  45.0083 282.8608 0002267 323.3420  36.7271 14.34520301309444,14.34520301,0.0002267,LEO
