<?xml version="1.0" encoding="UTF-8"?>
<ndm xmlns:xsi="http://www.w3.org/2001/XMLSchema-instance" xsi:noNamespaceSchemaLocation="https://sanaregistry.org/r/ndmxml_unqualified/ndmxml-2.0.0-master-2.0.xsd">
<omm id="CCSDS_OMM_VERS" version="2.0">
<header><CREATION_DATE/><ORIGINATOR/></header><body><segment><metadata><OBJECT_NAME>ORBCOMM FM16 [-]</OBJECT_NAME><OBJECT_ID>1998-046E</OBJECT_ID><CENTER_NAME>EARTH</CENTER_NAME><REF_FRAME>TEME</REF_FRAME><TIME_SYSTEM>UTC</TIME_SYSTEM><MEAN_ELEMENT_THEORY>SGP4</MEAN_ELEMENT_THEORY></metadata><data><meanElements><EPOCH>2023-10-14T13:55:11.358912</EPOCH><MEAN_MOTION>14.35200312</MEAN_MOTION><ECCENTRICITY>.0003425</ECCENTRICITY><INCLINATION>44.9939</INCLINATION><RA_OF_ASC_NODE>188.0492</RA_OF_ASC_NODE><ARG_OF_PERICENTER>84.4436</ARG_OF_PERICENTER><MEAN_ANOMALY>275.6801</MEAN_ANOMALY></meanElements><tleParameters><EPHEMERIS_TYPE>0</EPHEMERIS_TYPE><CLASSIFICATION_TYPE>U</CLASSIFICATION_TYPE><NORAD_CAT_ID>25417</NORAD_CAT_ID><ELEMENT_SET_NO>999</ELEMENT_SET_NO><REV_AT_EPOCH>31628</REV_AT_EPOCH><BSTAR>.10124E-2</BSTAR><MEAN_MOTION_DOT>.2781E-4</MEAN_MOTION_DOT><MEAN_MOTION_DDOT>0</MEAN_MOTION_DDOT></tleParameters></data></segment></body></omm>
<omm id="CCSDS_OMM_VERS" version="2.0">
<header><CREATION_DATE/><ORIGINATOR/></header><body><segment><metadata><OBJECT_NAME>ORBCOMM FM15 [-]</OBJECT_NAME><OBJECT_ID>1998-046F</OBJECT_ID><CENTER_NAME>EARTH</CENTER_NAME><REF_FRAME>TEME</REF_FRAME><TIME_SYSTEM>UTC</TIME_SYSTEM><MEAN_ELEMENT_THEORY>SGP4</MEAN_ELEMENT_THEORY></metadata><data><meanElements><EPOCH>2023-10-14T10:18:39.767616</EPOCH><MEAN_MOTION>14.34957951</MEAN_MOTION><ECCENTRICITY>.0002804</ECCENTRICITY><INCLINATION>44.9970</INCLINATION><RA_OF_ASC_NODE>192.3548</RA_OF_ASC_NODE><ARG_OF_PERICENTER>82.7258</ARG_OF_PERICENTER><MEAN_ANOMALY>277.3908</MEAN_ANOMALY></meanElements><tleParameters><EPHEMERIS_TYPE>0</EPHEMERIS_TYPE><CLASSIFICATION_TYPE>U</CLASSIFICATION_TYPE><NORAD_CAT_ID>25418</NORAD_CAT_ID><ELEMENT_SET_NO>999</ELEMENT_SET_NO><REV_AT_EPOCH>31627</REV_AT_EPOCH><BSTAR>.10388E-2</BSTAR><MEAN_MOTION_DOT>.2843E-4</MEAN_MOTION_DOT><MEAN_MOTION_DDOT>0</MEAN_MOTION_DDOT></tleParameters></data></segment></body></omm>
<omm id="CCSDS_OMM_VERS" version="2.0">
<header><CREATION_DATE/><ORIGINATOR/></header><body><segment><metadata><OBJECT_NAME>ORBCOMM FM14 [-]</OBJECT_NAME><OBJECT_ID>1998-046G</OBJECT_ID><CENTER_NAME>EARTH</CENTER_NAME><REF_FRAME>TEME</REF_FRAME><TIME_SYSTEM>UTC</TIME_SYSTEM><MEAN_ELEMENT_THEORY>SGP4</MEAN_ELEMENT_THEORY></metadata><data><meanElements><EPOCH>2023-10-14T18:11:36.352896</EPOCH><MEAN_MOTION>14.35069397</MEAN_MOTION><ECCENTRICITY>.0002224</ECCENTRICITY><INCLINATION>44.9962</INCLINATION><RA_OF_ASC_NODE>190.1508</RA_OF_ASC_NODE><ARG_OF_PERICENTER>58.3891</ARG_OF_PERICENTER><MEAN_ANOMALY>330.7834</MEAN_ANOMALY></meanElements><tleParameters><EPHEMERIS_TYPE>0</EPHEMERIS_TYPE><CLASSIFICATION_TYPE>U</CLASSIFICATION_TYPE><NORAD_CAT_ID>25419</NORAD_CAT_ID><ELEMENT_SET_NO>999</ELEMENT_SET_NO><REV_AT_EPOCH>31650</REV_AT_EPOCH><BSTAR>.10339E-2</BSTAR><MEAN_MOTION_DOT>.2835E-4</MEAN_MOTION_DOT><MEAN_MOTION_DDOT>0</MEAN_MOTION_DDOT></tleParameters></data></segment></body></omm>
<omm id="CCSDS_OMM_VERS" version="2.0">
<header><CREATION_DATE/><ORIGINATOR/></header><body><segment><metadata><OBJECT_NAME>ORBCOMM FM21 [-]</OBJECT_NAME><OBJECT_ID>1998-053A</OBJECT_ID><CENTER_NAME>EARTH</CENTER_NAME><REF_FRAME>TEME</REF_FRAME><TIME_SYSTEM>UTC</TIME_SYSTEM><MEAN_ELEMENT_THEORY>SGP4</MEAN_ELEMENT_THEORY></metadata><data><meanElements><EPOCH>2023-10-14T15:42:59.516064</EPOCH><MEAN_MOTION>14.34546371</MEAN_MOTION><ECCENTRICITY>.0002008</ECCENTRICITY><INCLINATION>45.0082</INCLINATION><RA_OF_ASC_NODE>278.5893</RA_OF_ASC_NODE><ARG_OF_PERICENTER>298.1802</ARG_OF_PERICENTER><MEAN_ANOMALY>61.8842</MEAN_ANOMALY></meanElements><tleParameters><EPHEMERIS_TYPE>0</EPHEMERIS_TYPE><CLASSIFICATION_TYPE>U</CLASSIFICATION_TYPE><NORAD_CAT_ID>25475</NORAD_CAT_ID><ELEMENT_SET_NO>999</ELEMENT_SET_NO><REV_AT_EPOCH>30968</REV_AT_EPOCH><BSTAR>.94894E-3</BSTAR><MEAN_MOTION_DOT>.2562E-4</MEAN_MOTION_DOT><MEAN_MOTION_DDOT>0</MEAN_MOTION_DDOT></tleParameters></data></segment></body></omm>
<omm id="CCSDS_OMM_VERS" version="2.0">
<header><CREATION_DATE/><ORIGINATOR/></header><body><segment><metadata><OBJECT_NAME>ORBCOMM FM22 [-]</OBJECT_NAME><OBJECT_ID>1998-053B</OBJECT_ID><CENTER_NAME>EARTH</CENTER_NAME><REF_FRAME>TEME</REF_FRAME><TIME_SYSTEM>UTC</TIME_SYSTEM><MEAN_ELEMENT_THEORY>SGP4</MEAN_ELEMENT_THEORY></metadata><data><meanElements><EPOCH>2023-10-14T08:22:02.361216</EPOCH><MEAN_MOTION>14.34910072</MEAN_MOTION><ECCENTRICITY>.0002605</ECCENTRICITY><INCLINATION>45.0076</INCLINATION><RA_OF_ASC_NODE>278.0345</RA_OF_ASC_NODE><ARG_OF_PERICENTER>339.7423</ARG_OF_PERICENTER><MEAN_ANOMALY>20.3320</MEAN_ANOMALY></meanElements><tleParameters><EPHEMERIS_TYPE>0</EPHEMERIS_TYPE><CLASSIFICATION_TYPE>U</CLASSIFICATION_TYPE><NORAD_CAT_ID>25476</NORAD_CAT_ID><ELEMENT_SET_NO>999</ELEMENT_SET_NO><REV_AT_EPOCH>30929</REV_AT_EPOCH><BSTAR>.10468E-2</BSTAR><MEAN_MOTION_DOT>.2863E-4</MEAN_MOTION_DOT><MEAN_MOTION_DDOT>0</MEAN_MOTION_DDOT></tleParameters></data></segment></body></omm>
<omm id="CCSDS_OMM_VERS" version="2.0">
<header><CREATION_DATE/><ORIGINATOR/></header><body><segment><metadata><OBJECT_NAME>ORBCOMM FM23 [-]</OBJECT_NAME><OBJECT_ID>1998-053C</OBJECT_ID><CENTER_NAME>EARTH</CENTER_NAME><REF_FRAME>TEME</REF_FRAME><TIME_SYSTEM>UTC</TIME_SYSTEM><MEAN_ELEMENT_THEORY>SGP4</MEAN_ELEMENT_THEORY></metadata><data><meanElements><EPOCH>2023-10-14T06:24:01.988352</EPOCH><MEAN_MOTION>14.34520301</MEAN_MOTION><ECCENTRICITY>.0002267</ECCENTRICITY><INCLINATION>45.0083</INCLINATION><RA_OF_ASC_NODE>282.8608</RA_OF_ASC_NODE><ARG_OF_PERICENTER>323.3420</ARG_OF_PERICENTER><MEAN_ANOMALY>36.7271</MEAN_ANOMALY></meanElements><tleParameters><EPHEMERIS_TYPE>0</EPHEMERIS_TYPE><CLASSIFICATION_TYPE>U</CLASSIFICATION_TYPE><NORAD_CAT_ID>25477</NORAD_CAT_ID><ELEMENT_SET_NO>999</ELEMENT_SET_NO><REV_AT_EPOCH>30944</REV_AT_EPOCH><BSTAR>.10177E-2</BSTAR><MEAN_MOTION_DOT>.2757E-4</MEAN_MOTION_DOT><MEAN_MOTION_DDOT>0</MEAN_MOTION_DDOT></tleParameters></data></segment></body></omm>

</ndm>
